{
  "type": "Topology",
  "objects": {
    "states": {
      "type": "GeometryCollection",
      "geometries": [
        {
          "type": "Polygon",
          "properties": {
            "NAME_1": "Maharashtra",
            "ST_NM": "MH",
            "state_code": "MH"
          },
          "arcs": [[0, 1, 2, 3]]
        },
        {
          "type": "Polygon",
          "properties": {
            "NAME_1": "Gujarat",
            "ST_NM": "GJ",
            "state_code": "GJ"
          },
          "arcs": [[4, 5, 6, 7]]
        },
        {
          "type": "Polygon",
          "properties": {
            "NAME_1": "Rajasthan",
            "ST_NM": "RJ",
            "state_code": "RJ"
          },
          "arcs": [[8, 9, 10, 11]]
        },
        {
          "type": "Polygon",
          "properties": {
            "NAME_1": "Uttar Pradesh",
            "ST_NM": "UP",
            "state_code": "UP"
          },
          "arcs": [[12, 13, 14, 15]]
        },
        {
          "type": "Polygon",
          "properties": {
            "NAME_1": "Tamil Nadu",
            "ST_NM": "TN",
            "state_code": "TN"
          },
          "arcs": [[16, 17, 18, 19]]
        },
        {
          "type": "Polygon",
          "properties": {
            "NAME_1": "Karnataka",
            "ST_NM": "KA",
            "state_code": "KA"
          },
          "arcs": [[20, 21, 22, 23]]
        },
        {
          "type": "Polygon",
          "properties": {
            "NAME_1": "Kerala",
            "ST_NM": "KL",
            "state_code": "KL"
          },
          "arcs": [[24, 25, 26, 27]]
        },
        {
          "type": "Polygon",
          "properties": {
            "NAME_1": "Andhra Pradesh",
            "ST_NM": "AP",
            "state_code": "AP"
          },
          "arcs": [[28, 29, 30, 31]]
        },
        {
          "type": "Polygon",
          "properties": {
            "NAME_1": "Telangana",
            "ST_NM": "TG",
            "state_code": "TG"
          },
          "arcs": [[32, 33, 34, 35]]
        },
        {
          "type": "Polygon",
          "properties": {
            "NAME_1": "West Bengal",
            "ST_NM": "WB",
            "state_code": "WB"
          },
          "arcs": [[36, 37, 38, 39]]
        },
        {
          "type": "Polygon",
          "properties": {
            "NAME_1": "Bihar",
            "ST_NM": "BR",
            "state_code": "BR"
          },
          "arcs": [[40, 41, 42, 43]]
        },
        {
          "type": "Polygon",
          "properties": {
            "NAME_1": "Madhya Pradesh",
            "ST_NM": "MP",
            "state_code": "MP"
          },
          "arcs": [[44, 45, 46, 47]]
        },
        {
          "type": "Polygon",
          "properties": {
            "NAME_1": "Odisha",
            "ST_NM": "OD",
            "state_code": "OD"
          },
          "arcs": [[48, 49, 50, 51]]
        },
        {
          "type": "Polygon",
          "properties": {
            "NAME_1": "Punjab",
            "ST_NM": "PB",
            "state_code": "PB"
          },
          "arcs": [[52, 53, 54, 55]]
        },
        {
          "type": "Polygon",
          "properties": {
            "NAME_1": "Haryana",
            "ST_NM": "HR",
            "state_code": "HR"
          },
          "arcs": [[56, 57, 58, 59]]
        },
        {
          "type": "Polygon",
          "properties": {
            "NAME_1": "Delhi",
            "ST_NM": "DL",
            "state_code": "DL"
          },
          "arcs": [[60, 61, 62, 63]]
        },
        {
          "type": "Polygon",
          "properties": {
            "NAME_1": "Jharkhand",
            "ST_NM": "JH",
            "state_code": "JH"
          },
          "arcs": [[64, 65, 66, 67]]
        },
        {
          "type": "Polygon",
          "properties": {
            "NAME_1": "Chhattisgarh",
            "ST_NM": "CT",
            "state_code": "CT"
          },
          "arcs": [[68, 69, 70, 71]]
        },
        {
          "type": "Polygon",
          "properties": {
            "NAME_1": "Assam",
            "ST_NM": "AS",
            "state_code": "AS"
          },
          "arcs": [[72, 73, 74, 75]]
        },
        {
          "type": "Polygon",
          "properties": {
            "NAME_1": "Himachal Pradesh",
            "ST_NM": "HP",
            "state_code": "HP"
          },
          "arcs": [[76, 77, 78, 79]]
        },
        {
          "type": "Polygon",
          "properties": {
            "NAME_1": "Uttarakhand",
            "ST_NM": "UK",
            "state_code": "UK"
          },
          "arcs": [[80, 81, 82, 83]]
        },
        {
          "type": "Polygon",
          "properties": {
            "NAME_1": "Jammu & Kashmir",
            "ST_NM": "JK",
            "state_code": "JK"
          },
          "arcs": [[84, 85, 86, 87]]
        },
        {
          "type": "Polygon",
          "properties": {
            "NAME_1": "Goa",
            "ST_NM": "GA",
            "state_code": "GA"
          },
          "arcs": [[88, 89, 90, 91]]
        },
        {
          "type": "Polygon",
          "properties": {
            "NAME_1": "Arunachal Pradesh",
            "ST_NM": "AR",
            "state_code": "AR"
          },
          "arcs": [[92, 93, 94, 95]]
        },
        {
          "type": "Polygon",
          "properties": {
            "NAME_1": "Nagaland",
            "ST_NM": "NL",
            "state_code": "NL"
          },
          "arcs": [[96, 97, 98, 99]]
        },
        {
          "type": "Polygon",
          "properties": {
            "NAME_1": "Manipur",
            "ST_NM": "MN",
            "state_code": "MN"
          },
          "arcs": [[100, 101, 102, 103]]
        },
        {
          "type": "Polygon",
          "properties": {
            "NAME_1": "Mizoram",
            "ST_NM": "MZ",
            "state_code": "MZ"
          },
          "arcs": [[104, 105, 106, 107]]
        },
        {
          "type": "Polygon",
          "properties": {
            "NAME_1": "Tripura",
            "ST_NM": "TR",
            "state_code": "TR"
          },
          "arcs": [[108, 109, 110, 111]]
        },
        {
          "type": "Polygon",
          "properties": {
            "NAME_1": "Meghalaya",
            "ST_NM": "ML",
            "state_code": "ML"
          },
          "arcs": [[112, 113, 114, 115]]
        },
        {
          "type": "Polygon",
          "properties": {
            "NAME_1": "Sikkim",
            "ST_NM": "SK",
            "state_code": "SK"
          },
          "arcs": [[116, 117, 118, 119]]
        }
      ]
    }
  },
  "arcs": [
    [[7300, 4500], [100, 50], [50, 100], [-100, 50], [-50, -100]],
    [[7400, 4600], [80, 40], [40, 80], [-80, 40], [-40, -80]],
    [[7480, 4680], [60, 30], [30, 60], [-60, 30], [-30, -60]],
    [[7540, 4740], [70, 35], [35, 70], [-70, 35], [-35, -70]],
    [[6800, 5000], [90, 45], [45, 90], [-90, 45], [-45, -90]],
    [[6890, 5090], [75, 38], [38, 75], [-75, 38], [-38, -75]],
    [[6965, 5165], [65, 33], [33, 65], [-65, 33], [-33, -65]],
    [[7030, 7230], [85, 43], [43, 85], [-85, 43], [-43, -85]],
    [[6500, 4000], [95, 48], [48, 95], [-95, 48], [-48, -95]],
    [[6595, 4095], [70, 35], [35, 70], [-70, 35], [-35, -70]],
    [[6665, 4165], [80, 40], [40, 80], [-80, 40], [-40, -80]],
    [[6745, 4245], [75, 38], [38, 75], [-75, 38], [-38, -75]],
    [[7500, 3500], [100, 50], [50, 100], [-100, 50], [-50, -100]],
    [[7600, 3600], [90, 45], [45, 90], [-90, 45], [-45, -90]],
    [[7690, 3690], [85, 43], [43, 85], [-85, 43], [-43, -85]],
    [[7775, 3775], [80, 40], [40, 80], [-80, 40], [-40, -80]],
    [[7200, 7500], [95, 48], [48, 95], [-95, 48], [-48, -95]],
    [[7295, 7595], [88, 44], [44, 88], [-88, 44], [-44, -88]],
    [[7383, 7683], [82, 41], [41, 82], [-82, 41], [-41, -82]],
    [[7465, 7765], [78, 39], [39, 78], [-78, 39], [-39, -78]],
    [[7000, 6500], [92, 46], [46, 92], [-92, 46], [-46, -92]],
    [[7092, 6592], [87, 44], [44, 87], [-87, 44], [-44, -87]],
    [[7179, 6679], [83, 42], [42, 83], [-83, 42], [-42, -83]],
    [[7262, 6762], [79, 40], [40, 79], [-79, 40], [-40, -79]],
    [[7100, 7800], [94, 47], [47, 94], [-94, 47], [-47, -94]],
    [[7194, 7894], [89, 45], [45, 89], [-89, 45], [-45, -89]],
    [[7283, 7983], [84, 42], [42, 84], [-84, 42], [-42, -84]],
    [[7367, 8067], [81, 41], [41, 81], [-81, 41], [-41, -81]],
    [[7400, 6000], [96, 48], [48, 96], [-96, 48], [-48, -96]],
    [[7496, 6096], [91, 46], [46, 91], [-91, 46], [-46, -91]],
    [[7587, 6187], [86, 43], [43, 86], [-86, 43], [-43, -86]],
    [[7673, 6273], [82, 41], [41, 82], [-82, 41], [-41, -82]],
    [[7350, 5800], [93, 47], [47, 93], [-93, 47], [-47, -93]],
    [[7443, 5893], [88, 44], [44, 88], [-88, 44], [-44, -88]],
    [[7531, 5981], [84, 42], [42, 84], [-84, 42], [-42, -84]],
    [[7615, 6065], [80, 40], [40, 80], [-80, 40], [-40, -80]],
    [[8200, 4800], [97, 49], [49, 97], [-97, 49], [-49, -97]],
    [[8297, 4897], [92, 46], [46, 92], [-92, 46], [-46, -92]],
    [[8389, 4989], [87, 44], [44, 87], [-87, 44], [-44, -87]],
    [[8476, 5076], [83, 42], [42, 83], [-83, 42], [-42, -83]],
    [[8000, 3800], [95, 48], [48, 95], [-95, 48], [-48, -95]],
    [[8095, 3895], [90, 45], [45, 90], [-90, 45], [-45, -90]],
    [[8185, 3985], [85, 43], [43, 85], [-85, 43], [-43, -85]],
    [[8270, 4070], [81, 41], [41, 81], [-81, 41], [-41, -81]],
    [[7100, 4800], [94, 47], [47, 94], [-94, 47], [-47, -94]],
    [[7194, 4894], [89, 45], [45, 89], [-89, 45], [-45, -89]],
    [[7283, 4983], [84, 42], [42, 84], [-84, 42], [-42, -84]],
    [[7367, 5067], [80, 40], [40, 80], [-80, 40], [-40, -80]],
    [[7800, 5500], [96, 48], [48, 96], [-96, 48], [-48, -96]],
    [[7896, 5596], [91, 46], [46, 91], [-91, 46], [-46, -91]],
    [[7987, 5687], [86, 43], [43, 86], [-86, 43], [-43, -86]],
    [[8073, 5773], [82, 41], [41, 82], [-82, 41], [-41, -82]],
    [[6300, 3200], [93, 47], [47, 93], [-93, 47], [-47, -93]],
    [[6393, 3293], [88, 44], [44, 88], [-88, 44], [-44, -88]],
    [[6481, 3381], [84, 42], [42, 84], [-84, 42], [-42, -84]],
    [[6565, 3465], [80, 40], [40, 80], [-80, 40], [-40, -80]],
    [[6800, 3500], [95, 48], [48, 95], [-95, 48], [-48, -95]],
    [[6895, 3595], [90, 45], [45, 90], [-90, 45], [-45, -90]],
    [[6985, 3685], [85, 43], [43, 85], [-85, 43], [-43, -85]],
    [[7070, 3770], [81, 41], [41, 81], [-81, 41], [-41, -81]],
    [[7000, 3000], [92, 46], [46, 92], [-92, 46], [-46, -92]],
    [[7092, 3092], [87, 44], [44, 87], [-87, 44], [-44, -87]],
    [[7179, 3179], [83, 42], [42, 83], [-83, 42], [-42, -83]],
    [[7262, 3262], [79, 40], [40, 79], [-79, 40], [-40, -79]],
    [[8300, 4000], [94, 47], [47, 94], [-94, 47], [-47, -94]],
    [[8394, 4094], [89, 45], [45, 89], [-89, 45], [-45, -89]],
    [[8483, 4183], [84, 42], [42, 84], [-84, 42], [-42, -84]],
    [[8567, 4267], [80, 40], [40, 80], [-80, 40], [-40, -80]],
    [[7600, 5000], [96, 48], [48, 96], [-96, 48], [-48, -96]],
    [[7696, 5096], [91, 46], [46, 91], [-91, 46], [-46, -91]],
    [[7787, 5187], [86, 43], [43, 86], [-86, 43], [-43, -86]],
    [[7873, 5273], [82, 41], [41, 82], [-82, 41], [-41, -82]],
    [[8600, 3500], [93, 47], [47, 93], [-93, 47], [-47, -93]],
    [[8693, 3593], [88, 44], [44, 88], [-88, 44], [-44, -88]],
    [[8781, 3681], [84, 42], [42, 84], [-84, 42], [-42, -84]],
    [[8865, 3765], [80, 40], [40, 80], [-80, 40], [-40, -80]],
    [[6700, 6200], [95, 48], [48, 95], [-95, 48], [-48, -95]],
    [[6795, 6295], [90, 45], [45, 90], [-90, 45], [-45, -90]],
    [[6885, 6385], [85, 43], [43, 85], [-85, 43], [-43, -85]],
    [[6970, 6470], [81, 41], [41, 81], [-81, 41], [-41, -81]],
    [[8800, 2500], [97, 49], [49, 97], [-97, 49], [-49, -97]],
    [[8897, 2597], [92, 46], [46, 92], [-92, 46], [-46, -92]],
    [[8989, 2689], [87, 44], [44, 87], [-87, 44], [-44, -87]],
    [[9076, 2776], [83, 42], [42, 83], [-83, 42], [-42, -83]],
    [[8900, 3200], [94, 47], [47, 94], [-94, 47], [-47, -94]],
    [[8994, 3294], [89, 45], [45, 89], [-89, 45], [-45, -89]],
    [[9083, 3383], [84, 42], [42, 84], [-84, 42], [-42, -84]],
    [[9167, 3467], [80, 40], [40, 80], [-80, 40], [-40, -80]],
    [[8700, 3800], [96, 48], [48, 96], [-96, 48], [-48, -96]],
    [[8796, 3896], [91, 46], [46, 91], [-91, 46], [-46, -91]],
    [[8887, 3987], [86, 43], [43, 86], [-86, 43], [-43, -86]],
    [[8973, 4073], [82, 41], [41, 82], [-82, 41], [-41, -82]],
    [[8500, 4200], [93, 47], [47, 93], [-93, 47], [-47, -93]],
    [[8593, 4293], [88, 44], [44, 88], [-88, 44], [-44, -88]],
    [[8681, 4381], [84, 42], [42, 84], [-84, 42], [-42, -84]],
    [[8765, 4465], [80, 40], [40, 80], [-80, 40], [-40, -80]],
    [[8600, 4600], [95, 48], [48, 95], [-95, 48], [-48, -95]],
    [[8695, 4695], [90, 45], [45, 90], [-90, 45], [-45, -90]],
    [[8785, 4785], [85, 43], [43, 85], [-85, 43], [-43, -85]],
    [[8870, 4870], [81, 41], [41, 81], [-81, 41], [-41, -81]],
    [[8400, 2800], [92, 46], [46, 92], [-92, 46], [-46, -92]],
    [[8492, 2892], [87, 44], [44, 87], [-87, 44], [-44, -87]],
    [[8579, 2979], [83, 42], [42, 83], [-83, 42], [-42, -83]],
    [[8662, 3062], [79, 40], [40, 79], [-79, 40], [-40, -79]]
  ],
  "transform": {
    "scale": [0.0001, 0.0001],
    "translate": [68.1766, 7.96553]
  }
}
